H1 CPF 01  gfz 2021 05 30 00  6501 terrasarx 
H2 0702601  6201 31698    2021 05 30 00 59 42 2021 06 04 00 00 42   120 1 1  0 0 0
H9
10 0 59366  62622.000000  0    2698475.184   -389941.595   6315563.700
10 0 59366  62742.000000  0    1844958.970   -584560.693   6600450.642
10 0 59366  62862.000000  0     956068.177   -753733.099   6769344.733
10 0 59366  62982.000000  0      47791.654   -894029.248   6819298.475
10 0 59366  63102.000000  0    -863496.549  -1002805.737   6749440.819
10 0 59366  63222.000000  0   -1761331.261  -1078255.079   6560990.644
10 0 59366  63342.000000  0   -2629452.017  -1119435.543   6257236.106
10 0 59366  63462.000000  0   -3452096.033  -1126281.023   5843481.873
10 0 59366  63582.000000  0   -4214287.203  -1099591.593   5326963.951
10 0 59366  63702.000000  0   -4902114.459  -1041005.303   4716729.438
10 0 59366  63822.000000  0   -5502993.267   -952950.163   4023482.785
10 0 59366  63942.000000  0   -6005904.201   -838577.693   3259400.813
10 0 59366  64062.000000  0   -6401603.643   -701679.336   2437920.841
10 0 59366  64182.000000  0   -6682804.728   -546587.575   1573504.237
10 0 59366  64302.000000  0   -6844321.164   -378063.992    681376.336
10 0 59366  64422.000000  0   -6883168.297   -201177.384   -222749.536
10 0 59366  64542.000000  0   -6798620.320    -21174.378  -1122957.706
10 0 59366  64662.000000  0   -6592220.958    156653.884  -2003419.454
10 0 59366  64782.000000  0   -6267749.597    327104.859  -2848677.564
10 0 59366  64902.000000  0   -5831144.254    485194.967  -3643924.540
10 0 59366  65022.000000  0   -5290379.600    626284.088  -4375264.953
10 0 59366  65142.000000  0   -4655308.120    746190.339  -5029956.303
10 0 59366  65262.000000  0   -3937467.581    841292.727  -5596625.133
10 0 59366  65382.000000  0   -3149861.169    908619.510  -6065455.526
10 0 59366  65502.000000  0   -2306714.665    945920.081  -6428347.595
10 0 59366  65622.000000  0   -1423217.175    951720.521  -6679045.950
10 0 59366  65742.000000  0    -515247.726    925361.824  -6813236.576
10 0 59366  65862.000000  0     400904.886    867019.438  -6828611.494
10 0 59366  65982.000000  0    1308825.889    777704.556  -6724905.338
10 0 59366  66102.000000  0    2192262.860    659246.862  -6503901.436
10 0 59366  66222.000000  0    3035410.792    514259.176  -6169404.021
10 0 59366  66342.000000  0    3823190.857    346084.685  -5727179.146
10 0 59366  66462.000000  0    4541517.683    158726.114  -5184864.708
10 0 59366  66582.000000  0    5177553.378    -43240.404  -4551850.667
10 0 59366  66702.000000  0    5719944.060   -254766.488  -3839127.230
10 0 59366  66822.000000  0    6159031.455   -470445.789  -3059102.997
10 0 59366  66942.000000  0    6487036.636   -684639.317  -2225396.212
10 0 59366  67062.000000  0    6698211.158   -891608.997  -1352599.843
10 0 59366  67182.000000  0    6788949.719  -1085655.775   -456024.971
10 0 59366  67302.000000  0    6757861.645  -1261259.464    448571.793
10 0 59366  67422.000000  0    6605798.933  -1413216.672   1345272.482
10 0 59366  67542.000000  0    6335838.692  -1536773.652   2218286.277
10 0 59366  67662.000000  0    5953220.874  -1627749.644   3052237.436
10 0 59366  67782.000000  0    5465241.318  -1682647.327   3832443.767
10 0 59366  67902.000000  0    4881104.870  -1698749.181   4545180.191
10 0 59366  68022.000000  0    4211742.496  -1674195.645   5177922.112
10 0 59366  68142.000000  0    3469598.055  -1608043.644   5719565.315
10 0 59366  68262.000000  0    2668387.593  -1500305.412   6160618.319
10 0 59366  68382.000000  0    1822838.798  -1351966.368   6493362.737
10 0 59366  68502.000000  0     948415.739  -1164982.258   6711982.940
10 0 59366  68622.000000  0      61032.734   -942254.429   6812661.997
10 0 59366  68742.000000  0    -823235.849   -687584.386   6793642.931
10 0 59366  68862.000000  0   -1688445.379   -405608.986   6655256.760
10 0 59366  68982.000000  0   -2519066.943   -101716.332   6399917.061
10 0 59366  69102.000000  0   -3300265.246    218056.178   6032081.442
10 0 59366  69222.000000  0   -4018165.353    547139.893   5558179.518
10 0 59366  69342.000000  0   -4660103.749    878567.133   4986506.569
10 0 59366  69462.000000  0   -5214858.440   1205115.693   4327084.377
10 0 59366  69582.000000  0   -5672853.668   1519462.948   3591489.534
10 0 59366  69702.000000  0   -6026333.684   1814345.922   2792652.589
10 0 59366  69822.000000  0   -6269503.099   2082723.983   1944631.016
10 0 59366  69942.000000  0   -6398630.354   2317940.368   1062359.085
10 0 59366  70062.000000  0   -6412110.159   2513878.879    161378.070
10 0 59366  70182.000000  0   -6310482.255   2665110.437   -742445.947
10 0 59366  70302.000000  0   -6096407.003   2767026.221  -1633210.497
10 0 59366  70422.000000  0   -5774598.513   2815954.601  -2495265.053
10 0 59366  70542.000000  0   -5351715.858   2809258.439  -3313493.873
10 0 59366  70662.000000  0   -4836216.387   2745409.447  -4073584.770
10 0 59366  70782.000000  0   -4238176.486   2624039.392  -4762279.281
10 0 59366  70902.000000  0   -3569084.197   2445966.739  -5367599.373
10 0 59366  71022.000000  0   -2841610.410   2213199.455  -5879046.862
10 0 59366  71142.000000  0   -2069364.406   1928914.337  -6287775.776
10 0 59366  71262.000000  0   -1266635.668   1597412.508  -6586734.496
10 0 59366  71382.000000  0    -448130.606   1224052.948  -6770775.055
10 0 59366  71502.000000  0     371292.348    815165.598  -6836731.992
10 0 59366  71622.000000  0    1176885.088    377946.094  -6783471.502
10 0 59366  71742.000000  0    1954270.305    -79668.357  -6611910.230
10 0 59366  71862.000000  0    2689692.124   -549139.552  -6325000.038
10 0 59366  71982.000000  0    3370255.509  -1021483.090  -5927683.268
10 0 59366  72102.000000  0    3984150.242  -1487435.268  -5426815.402
10 0 59366  72222.000000  0    4520857.504  -1937630.653  -4831058.909
10 0 59366  72342.000000  0    4971335.536  -2362788.226  -4150744.493
10 0 59366  72462.000000  0    5328179.284  -2753900.925  -3397702.187
10 0 59366  72582.000000  0    5585751.919  -3102425.258  -2585063.780
10 0 59366  72702.000000  0    5740283.960  -3400466.726  -1727037.841
10 0 59366  72822.000000  0    5789936.453  -3640956.434   -838662.249
10 0 59366  72942.000000  0    5734827.074  -3817815.130     64462.105
10 0 59366  73062.000000  0    5577016.849  -3926099.343    966451.089
10 0 59366  73182.000000  0    5320457.824  -3962127.085   1851425.134
10 0 59366  73302.000000  0    4970901.086  -3923576.711   2703798.879
10 0 59366  73422.000000  0    4535768.596  -3809557.552   3508563.086
10 0 59366  73542.000000  0    4023993.899  -3620651.475   4251554.833
10 0 59366  73662.000000  0    3445834.520  -3358925.017   4919711.258
10 0 59366  73782.000000  0    2812659.182  -3027909.971   5501300.253
10 0 59366  73902.000000  0    2136718.822  -2632554.045   5986124.200
10 0 59366  74022.000000  0    1430904.140  -2179143.649   6365694.380
10 0 59366  74142.000000  0     708496.198  -1675200.814   6633373.423
10 0 59366  74262.000000  0     -17085.314  -1129355.644   6784485.343
10 0 59366  74382.000000  0    -732531.384   -551196.680   6816391.896
10 0 59366  74502.000000  0   -1424886.655     48897.927   6728535.140
10 0 59366  74622.000000  0   -2081783.030    659946.251   6522446.688
10 0 59366  74742.000000  0   -2691660.070   1270562.773   6201722.866
10 0 59366  74862.000000  0   -3243969.142   1869169.494   5771966.122
10 0 59366  74982.000000  0   -3729358.529   2444215.182   5240693.753
10 0 59366  75102.000000  0   -4139836.577   2984399.839   4617212.770
10 0 59366  75222.000000  0   -4468908.907   3478899.059   3912461.972
10 0 59366  75342.000000  0   -4711687.486   3917583.659   3138823.423
10 0 59366  75462.000000  0   -4864967.649   4291230.483   2309905.849
10 0 59366  75582.000000  0   -4927272.015   4591720.279   1440303.779
10 0 59366  75702.000000  0   -4898858.988   4812215.669    545334.847
10 0 59366  75822.000000  0   -4781696.323   4947313.724   -359237.037
10 0 59366  75942.000000  0   -4579401.024   4993172.063  -1257488.052
10 0 59366  76062.000000  0   -4297143.156   4947603.275  -2133625.542
10 0 59366  76182.000000  0   -3941519.175   4810134.609  -2972273.119
10 0 59366  76302.000000  0   -3520398.411   4582031.997  -3758746.618
10 0 59366  76422.000000  0   -3042745.753   4266288.596  -4479312.034
10 0 59366  76542.000000  0   -2518427.403   3867579.799  -5121421.430
10 0 59366  76662.000000  0   -1958005.204   3392187.787  -5673924.092
10 0 59366  76782.000000  0   -1372522.714   2847896.039  -6127252.049
10 0 59366  76902.000000  0    -773287.227   2243855.316  -6473575.364
10 0 59366  77022.000000  0    -171653.262   1590426.133  -6706925.268
10 0 59366  77142.000000  0     421188.325    899000.601  -6823286.541
10 0 59366  77262.000000  0     994413.186    181806.606  -6820659.895
10 0 59366  77382.000000  0    1537757.319   -548304.567  -6699092.837
10 0 59366  77502.000000  0    2041696.054  -1278083.272  -6460677.278
10 0 59366  77622.000000  0    2497607.413  -1994115.529  -6109517.618
10 0 59366  77742.000000  0    2897918.208  -2683063.501  -5651667.955
10 0 59366  77862.000000  0    3236231.272  -3331911.521  -5095039.948
10 0 59366  77982.000000  0    3507431.124  -3928213.259  -4449275.785
10 0 59366  78102.000000  0    3707763.561  -4460331.369  -3725590.619
10 0 59366  78222.000000  0    3834890.734  -4917668.271  -2936588.261
10 0 59366  78342.000000  0    3887920.351  -5290884.330  -2096048.860
10 0 59366  78462.000000  0    3867404.957  -5572096.358  -1218689.922
10 0 59366  78582.000000  0    3775312.319  -5755049.942   -319907.174
10 0 59366  78702.000000  0    3614966.320  -5835262.221    584501.081
10 0 59366  78822.000000  0    3390959.645  -5810130.239   1478618.657
10 0 59366  78942.000000  0    3109041.170  -5679002.042   2346701.456
10 0 59366  79062.000000  0    2775978.503  -5443206.342   3173463.598
99
